[{"OBJECT_NAME":"GRUS-1C","OBJECT_ID":"2021-022B","EPOCH":"2026-03-09T22:02:59.067744","MEAN_MOTION":14.98740486,"ECCENTRICITY":0.00125084,"INCLINATION":97.5524,"RA_OF_ASC_NODE":315.2446,"ARG_OF_PERICENTER":300.8214,"MEAN_ANOMALY":59.1778,"EPHEMERIS_TYPE":0,"CLASSIFICATION_TYPE":"U","NORAD_CAT_ID":47933,"ELEMENT_SET_NO":999,"REV_AT_EPOCH":27103,"BSTAR":0.00015887452,"MEAN_MOTION_DOT":1.857e-5,"MEAN_MOTION_DDOT":0},{"OBJECT_NAME":"STARLINK-34574","OBJECT_ID":"2025-142U","EPOCH":"2026-03-09T22:03:05.398272","MEAN_MOTION":14.98338304,"ECCENTRICITY":0.00023816,"INCLINATION":70.0008,"RA_OF_ASC_NODE":313.9339,"ARG_OF_PERICENTER":255.583,"MEAN_ANOMALY":104.5065,"EPHEMERIS_TYPE":0,"CLASSIFICATION_TYPE":"U","NORAD_CAT_ID":64714,"ELEMENT_SET_NO":999,"REV_AT_EPOCH":3952,"BSTAR":0.00047382667,"MEAN_MOTION_DOT":5.566e-5,"MEAN_MOTION_DDOT":0}]
